{"type":"FeatureCollection","ward":"ballygunge","source":"OpenStreetMap via Overpass (ODbL)","note":"Major classes only. OSM names 97% of primary and 100% of tertiary ways here but 17% of residential and 2% of service, so labelling the minor classes would imply the unnamed majority have no name.","count":48,"names":["Ballygunge Circular Road (Pramatesh Barua Sarani)","Banku Bihari Chatterjee Road","Bijon Flyover","Bondel Road","Bondel Road Flyover","Broad Street","Dr. Meghnad Saha Road","Gariahat Flyover","Gariahat Road","Gol Park","Hazra Road","Picnic Garden Road","Raja Subodh Chandra Mullick Road","Rash Behari Avenue","Rash Behari Avenue Connector","Rifle Range Road","Syed Amir Ali Avenue"],"features":[{"type":"Feature","properties":{"name":"Ballygunge Circular Road (Pramatesh Barua Sarani)","cls":"tertiary"},"geometry":{"type":"LineString","coordinates":[[88.356056,22.529772],[88.355992,22.529512],[88.355908,22.529239],[88.355787,22.529021],[88.356098,22.52892],[88.356706,22.52876],[88.356785,22.52873],[88.356873,22.528711],[88.357321,22.528605],[88.357329,22.528604],[88.357352,22.5286],[88.357462,22.528582],[88.357502,22.528575],[88.357543,22.528569],[88.357628,22.528541],[88.357769,22.528496],[88.358046,22.528434],[88.358979,22.528231],[88.359086,22.528196],[88.360226,22.527998],[88.360541,22.527931],[88.360787,22.527816],[88.360961,22.527733],[88.361033,22.527698],[88.361099,22.527666],[88.361149,22.527646],[88.361225,22.527618],[88.361296,22.527601],[88.361414,22.527608],[88.361929,22.527646],[88.362348,22.52766],[88.362938,22.527653],[88.363504,22.52772],[88.363815,22.527805],[88.364156,22.527921],[88.364339,22.527977],[88.364472,22.528005],[88.364735,22.528037],[88.364939,22.528052],[88.365312,22.528065],[88.365755,22.528043]]}},{"type":"Feature","properties":{"name":"Banku Bihari Chatterjee Road","cls":"secondary"},"geometry":{"type":"LineString","coordinates":[[88.378036,22.517578],[88.377566,22.517767],[88.377508,22.517796],[88.377394,22.517832],[88.376915,22.518013],[88.376751,22.518074],[88.376508,22.518165],[88.376355,22.518227],[88.376198,22.518305],[88.376177,22.518313],[88.375998,22.518405],[88.375824,22.518499],[88.375641,22.51858],[88.375497,22.518649],[88.375456,22.518672],[88.3754,22.518709]]}},{"type":"Feature","properties":{"name":"Banku Bihari Chatterjee Road","cls":"secondary"},"geometry":{"type":"LineString","coordinates":[[88.379629,22.514856],[88.379535,22.514924],[88.379486,22.514962],[88.379255,22.515172],[88.379221,22.515208],[88.379203,22.515235],[88.379165,22.515347],[88.379147,22.515455],[88.379145,22.515498],[88.379146,22.51557],[88.379152,22.515622],[88.379184,22.515819],[88.379195,22.515851],[88.379215,22.515891],[88.37933,22.516092],[88.379396,22.516192],[88.379405,22.516216],[88.379429,22.516321],[88.379436,22.51636],[88.379436,22.516383],[88.379407,22.5165],[88.379352,22.516718],[88.379335,22.516766],[88.37925,22.516985],[88.379233,22.517014],[88.3792,22.517047],[88.379154,22.517077],[88.378983,22.517185],[88.378869,22.517236],[88.378658,22.517329],[88.378522,22.517384],[88.378036,22.517578]]}},{"type":"Feature","properties":{"name":"Bijon Flyover","cls":"primary"},"geometry":{"type":"LineString","coordinates":[[88.369581,22.521219],[88.370612,22.5211],[88.371255,22.521035],[88.372056,22.520945],[88.372443,22.520892],[88.372805,22.52084],[88.373159,22.520767],[88.37327,22.520723],[88.375146,22.519984]]}},{"type":"Feature","properties":{"name":"Bijon Flyover","cls":"primary"},"geometry":{"type":"LineString","coordinates":[[88.375113,22.51991],[88.373136,22.520702],[88.372791,22.520773],[88.372432,22.520824],[88.372046,22.520877],[88.371247,22.520967],[88.370604,22.521033],[88.369574,22.521138]]}},{"type":"Feature","properties":{"name":"Bondel Road","cls":"tertiary"},"geometry":{"type":"LineString","coordinates":[[88.365978,22.528707],[88.366011,22.52872],[88.366479,22.528889],[88.36667,22.528932],[88.366946,22.528993]]}},{"type":"Feature","properties":{"name":"Bondel Road","cls":"tertiary"},"geometry":{"type":"LineString","coordinates":[[88.366946,22.528993],[88.367529,22.529008],[88.368139,22.529025],[88.368194,22.529028],[88.368585,22.529066],[88.368735,22.529075],[88.369018,22.529083],[88.369106,22.529086],[88.369227,22.52909],[88.36945,22.529104],[88.369497,22.529107],[88.369819,22.529127],[88.369935,22.529135],[88.370051,22.529142],[88.370232,22.529144],[88.370448,22.529164],[88.370577,22.529176],[88.371599,22.529241],[88.371773,22.529252],[88.371879,22.529258],[88.37222,22.52928]]}},{"type":"Feature","properties":{"name":"Bondel Road Flyover","cls":"secondary"},"geometry":{"type":"LineString","coordinates":[[88.372524,22.529823],[88.372499,22.529931],[88.372462,22.530037],[88.372396,22.530217]]}},{"type":"Feature","properties":{"name":"Bondel Road Flyover","cls":"secondary"},"geometry":{"type":"LineString","coordinates":[[88.375017,22.528705],[88.374884,22.528617],[88.374743,22.528518],[88.37465,22.528444],[88.374371,22.528202],[88.374292,22.528147],[88.374198,22.528099],[88.37409,22.528058],[88.374008,22.52803],[88.373937,22.528015],[88.373848,22.528001],[88.373766,22.527996],[88.373677,22.527997],[88.372996,22.52808],[88.37275,22.528113],[88.372648,22.52814],[88.372581,22.528166],[88.372522,22.528192],[88.372476,22.528227],[88.372428,22.528268],[88.37239,22.528317],[88.372348,22.528379],[88.372327,22.528433],[88.37231,22.528495],[88.372304,22.528566],[88.372307,22.528635],[88.372315,22.528695],[88.37233,22.528752],[88.372356,22.528825],[88.372499,22.529218],[88.372531,22.52932],[88.372548,22.529395],[88.37256,22.529477],[88.372566,22.529583]]}},{"type":"Feature","properties":{"name":"Broad Street","cls":"tertiary"},"geometry":{"type":"LineString","coordinates":[[88.366946,22.528993],[88.366771,22.528809],[88.366458,22.52848],[88.366326,22.528343],[88.366185,22.528181]]}},{"type":"Feature","properties":{"name":"Broad Street","cls":"tertiary"},"geometry":{"type":"LineString","coordinates":[[88.373005,22.534891],[88.372438,22.534396],[88.372153,22.534139],[88.372093,22.534086],[88.371856,22.53388],[88.371739,22.533779],[88.371575,22.533615],[88.371027,22.53316],[88.370858,22.53302],[88.370285,22.53253],[88.369837,22.532076],[88.369671,22.531901],[88.369205,22.531405],[88.369021,22.531215],[88.368997,22.531187],[88.36882,22.530995],[88.368659,22.530763],[88.368564,22.530664],[88.367169,22.529223],[88.366946,22.528993]]}},{"type":"Feature","properties":{"name":"Dr. Meghnad Saha Road","cls":"tertiary"},"geometry":{"type":"LineString","coordinates":[[88.353159,22.513137],[88.354576,22.513275],[88.355995,22.513422],[88.356557,22.513454],[88.357579,22.513565],[88.35822,22.513638],[88.358865,22.513719],[88.359216,22.513763],[88.359546,22.513795],[88.359763,22.513818],[88.36067,22.513915],[88.36124,22.513965],[88.362152,22.514064],[88.363012,22.514157],[88.363294,22.514188],[88.36371,22.514244],[88.364061,22.514286],[88.364458,22.514376],[88.364754,22.514476],[88.364997,22.514627],[88.365039,22.514653],[88.365256,22.514831],[88.365425,22.51497],[88.365594,22.515171],[88.365694,22.51531],[88.365826,22.515528],[88.366004,22.515917],[88.366079,22.516047]]}},{"type":"Feature","properties":{"name":"Dr. Meghnad Saha Road","cls":"tertiary"},"geometry":{"type":"LineString","coordinates":[[88.366281,22.516006],[88.366093,22.515616],[88.365878,22.5152],[88.365548,22.514807],[88.365453,22.514692],[88.365431,22.514666],[88.36516,22.514426],[88.364958,22.514308],[88.364652,22.514175],[88.364104,22.514058],[88.362183,22.513863],[88.360698,22.513712],[88.359557,22.513589],[88.359289,22.51356],[88.358894,22.513515],[88.357593,22.513365],[88.356055,22.513185],[88.354599,22.513047],[88.353202,22.512923]]}},{"type":"Feature","properties":{"name":"Gariahat Flyover","cls":"primary"},"geometry":{"type":"LineString","coordinates":[[88.365283,22.522617],[88.365225,22.522232],[88.365192,22.521961],[88.365151,22.521621],[88.36513,22.521436],[88.365096,22.521069],[88.365088,22.520939],[88.365077,22.520777],[88.365077,22.52066],[88.365081,22.520565],[88.365096,22.520452],[88.365106,22.520366],[88.365132,22.520243],[88.365167,22.520115],[88.365216,22.519944],[88.365289,22.519723],[88.3654,22.519394],[88.365479,22.51914],[88.365612,22.518748],[88.365731,22.518393],[88.365857,22.518036],[88.365914,22.517889],[88.36597,22.517723],[88.366012,22.517601],[88.366046,22.517503],[88.366085,22.51737],[88.366118,22.517228]]}},{"type":"Feature","properties":{"name":"Gariahat Flyover","cls":"primary"},"geometry":{"type":"LineString","coordinates":[[88.366057,22.517218],[88.366001,22.517423],[88.365953,22.517562],[88.365898,22.51773],[88.365835,22.517892],[88.365726,22.518194],[88.365634,22.518462],[88.365572,22.518642],[88.365516,22.518807],[88.365467,22.518958],[88.365398,22.519166],[88.365334,22.519362],[88.365259,22.519591],[88.365211,22.519739],[88.36516,22.519905],[88.365128,22.520004],[88.365105,22.520077],[88.365078,22.520167],[88.365051,22.520273],[88.365037,22.520356],[88.36502,22.520493],[88.36501,22.520602],[88.36501,22.520707],[88.365011,22.520826],[88.365018,22.52096],[88.36504,22.521202],[88.365082,22.521598],[88.365119,22.521881],[88.365158,22.522206],[88.365187,22.522412],[88.365228,22.522646]]}},{"type":"Feature","properties":{"name":"Gariahat Road","cls":"primary"},"geometry":{"type":"LineString","coordinates":[[88.365288,22.522917],[88.365322,22.52307],[88.365363,22.523254],[88.365494,22.523748],[88.365674,22.52446],[88.365876,22.525317],[88.365899,22.525443],[88.365964,22.525798]]}},{"type":"Feature","properties":{"name":"Gariahat Road","cls":"primary"},"geometry":{"type":"LineString","coordinates":[[88.365785,22.528823],[88.3657,22.529094],[88.365689,22.529128],[88.365678,22.529165],[88.365527,22.529653],[88.365465,22.529883],[88.365371,22.53024],[88.365301,22.53051],[88.365218,22.530825],[88.365171,22.531002],[88.365109,22.531199]]}},{"type":"Feature","properties":{"name":"Gariahat Road","cls":"primary"},"geometry":{"type":"LineString","coordinates":[[88.365892,22.528906],[88.365978,22.528707],[88.366101,22.528389]]}},{"type":"Feature","properties":{"name":"Gariahat Road","cls":"primary"},"geometry":{"type":"LineString","coordinates":[[88.365921,22.528327],[88.365851,22.528588],[88.365813,22.528723],[88.365785,22.528823]]}},{"type":"Feature","properties":{"name":"Gariahat Road","cls":"tertiary"},"geometry":{"type":"LineString","coordinates":[[88.365952,22.528033],[88.366008,22.528136],[88.36603,22.528176],[88.366014,22.528349],[88.36595,22.528537],[88.365909,22.528654],[88.365949,22.528685],[88.365978,22.528707]]}},{"type":"Feature","properties":{"name":"Gariahat Road","cls":"primary"},"geometry":{"type":"LineString","coordinates":[[88.365964,22.525798],[88.366006,22.526073],[88.366028,22.526313],[88.366039,22.52665],[88.366045,22.527193]]}},{"type":"Feature","properties":{"name":"Gariahat Road","cls":"primary"},"geometry":{"type":"LineString","coordinates":[[88.366045,22.527193],[88.366024,22.527365],[88.366001,22.527567],[88.365978,22.527824]]}},{"type":"Feature","properties":{"name":"Gariahat Road","cls":"primary"},"geometry":{"type":"LineString","coordinates":[[88.366069,22.525799],[88.366059,22.525744],[88.366039,22.525592],[88.36601,22.525389],[88.365957,22.525186],[88.365883,22.524874],[88.365758,22.524395],[88.365679,22.524088],[88.365612,22.523747],[88.365451,22.523209]]}},{"type":"Feature","properties":{"name":"Gariahat Road","cls":"primary"},"geometry":{"type":"LineString","coordinates":[[88.366154,22.527149],[88.366159,22.526856],[88.366155,22.526687],[88.366146,22.52646],[88.366134,22.526315],[88.366119,22.52613],[88.366084,22.525888],[88.366069,22.525799]]}},{"type":"Feature","properties":{"name":"Gariahat Road","cls":"primary"},"geometry":{"type":"LineString","coordinates":[[88.366165,22.516979],[88.366199,22.516831],[88.366267,22.516522]]}},{"type":"Feature","properties":{"name":"Gariahat Road","cls":"primary"},"geometry":{"type":"LineString","coordinates":[[88.366186,22.516519],[88.366109,22.516971]]}},{"type":"Feature","properties":{"name":"Gariahat Road","cls":"primary"},"geometry":{"type":"LineString","coordinates":[[88.366232,22.527829],[88.366221,22.527708],[88.366193,22.527557],[88.366166,22.527428],[88.366155,22.527345],[88.366151,22.527255],[88.366154,22.527149]]}},{"type":"Feature","properties":{"name":"Gol Park","cls":"primary"},"geometry":{"type":"LineString","coordinates":[[88.366079,22.516047],[88.366007,22.516111],[88.365964,22.516196],[88.365955,22.516289],[88.365985,22.516382],[88.366028,22.516434],[88.366049,22.516458],[88.366113,22.516497],[88.366186,22.516519]]}},{"type":"Feature","properties":{"name":"Hazra Road","cls":"secondary"},"geometry":{"type":"LineString","coordinates":[[88.352917,22.524547],[88.353177,22.524556],[88.353298,22.524569],[88.353472,22.524608],[88.353893,22.524656],[88.354078,22.524668],[88.354331,22.524666],[88.354567,22.524658],[88.354597,22.524661],[88.355159,22.52471],[88.355683,22.524709],[88.355908,22.524736],[88.356028,22.52474],[88.356138,22.52474],[88.356423,22.524744],[88.356524,22.52475],[88.35687,22.524752],[88.357258,22.524768],[88.357349,22.524801],[88.357971,22.524893],[88.358747,22.525033],[88.359389,22.525116],[88.359732,22.525163],[88.359828,22.525176],[88.360218,22.52524],[88.360459,22.525279],[88.360564,22.525294],[88.360972,22.525355],[88.361063,22.525374],[88.361454,22.525444],[88.362288,22.525598],[88.36301,22.525675],[88.363179,22.525719]]}},{"type":"Feature","properties":{"name":"Hazra Road","cls":"secondary"},"geometry":{"type":"LineString","coordinates":[[88.363179,22.525719],[88.363391,22.525831],[88.364014,22.526159],[88.364618,22.52646],[88.364989,22.526647],[88.365212,22.526893],[88.365506,22.527264],[88.365628,22.527415],[88.365799,22.527596],[88.365876,22.527676],[88.365978,22.527824]]}},{"type":"Feature","properties":{"name":"Picnic Garden Road","cls":"secondary"},"geometry":{"type":"LineString","coordinates":[[88.375438,22.528852],[88.375694,22.528764],[88.375835,22.528746],[88.375929,22.528735],[88.376312,22.528805],[88.376651,22.528759],[88.37675,22.528746],[88.377082,22.528695],[88.377201,22.528694],[88.377626,22.528751],[88.378006,22.528794],[88.378414,22.52884],[88.378634,22.528856],[88.379091,22.528891],[88.379167,22.528897],[88.379245,22.528903],[88.379369,22.528912],[88.37946,22.528919],[88.379804,22.528947],[88.379828,22.528949],[88.380248,22.528974],[88.38064,22.528996],[88.380718,22.528996],[88.380889,22.528994],[88.381144,22.528953],[88.381261,22.528944],[88.381532,22.528907],[88.381651,22.528894],[88.38187,22.528872]]}},{"type":"Feature","properties":{"name":"Raja Subodh Chandra Mullick Road","cls":"primary"},"geometry":{"type":"LineString","coordinates":[[88.366514,22.516304],[88.366607,22.516201],[88.366688,22.5161],[88.366743,22.516023],[88.366782,22.515955],[88.366831,22.515825],[88.366867,22.515674],[88.366902,22.515474],[88.366964,22.515106],[88.367039,22.514697],[88.367065,22.51455],[88.367068,22.514536],[88.367103,22.514248],[88.367125,22.51402],[88.367156,22.513804],[88.367185,22.513615],[88.367203,22.513534],[88.36722,22.513446],[88.367236,22.513366]]}},{"type":"Feature","properties":{"name":"Rash Behari Avenue","cls":"primary"},"geometry":{"type":"LineString","coordinates":[[88.356978,22.518222],[88.357862,22.518384],[88.358495,22.518512],[88.359587,22.518714],[88.360219,22.518826],[88.360994,22.518935],[88.361343,22.518987],[88.361987,22.519083],[88.362373,22.519139],[88.362515,22.51916],[88.362898,22.519232]]}},{"type":"Feature","properties":{"name":"Rash Behari Avenue","cls":"primary"},"geometry":{"type":"LineString","coordinates":[[88.361998,22.518974],[88.361287,22.518848],[88.360225,22.518689],[88.359627,22.518571],[88.358523,22.518375],[88.357015,22.51808]]}},{"type":"Feature","properties":{"name":"Rash Behari Avenue","cls":"primary"},"geometry":{"type":"LineString","coordinates":[[88.362926,22.519113],[88.362684,22.519077],[88.362329,22.519024],[88.361998,22.518974]]}},{"type":"Feature","properties":{"name":"Rash Behari Avenue","cls":"primary"},"geometry":{"type":"LineString","coordinates":[[88.363372,22.519317],[88.364077,22.519436],[88.364241,22.519464],[88.364561,22.519509],[88.364852,22.519578],[88.365128,22.519671]]}},{"type":"Feature","properties":{"name":"Rash Behari Avenue","cls":"primary"},"geometry":{"type":"LineString","coordinates":[[88.365161,22.519557],[88.364876,22.519465],[88.364573,22.519392],[88.364328,22.519353],[88.363855,22.519276],[88.363603,22.519229],[88.3634,22.519192]]}},{"type":"Feature","properties":{"name":"Rash Behari Avenue","cls":"primary"},"geometry":{"type":"LineString","coordinates":[[88.365339,22.519745],[88.36543,22.519779],[88.365985,22.519984],[88.367163,22.520471],[88.367295,22.520526],[88.367628,22.520668],[88.368092,22.520861],[88.368317,22.52095],[88.368508,22.521028]]}},{"type":"Feature","properties":{"name":"Rash Behari Avenue","cls":"primary"},"geometry":{"type":"LineString","coordinates":[[88.367345,22.520424],[88.36684,22.52025],[88.365372,22.519641]]}},{"type":"Feature","properties":{"name":"Rash Behari Avenue","cls":"primary"},"geometry":{"type":"LineString","coordinates":[[88.368556,22.520931],[88.368194,22.520776],[88.367955,22.520674],[88.367661,22.520553],[88.367419,22.520453],[88.367391,22.520442],[88.367345,22.520424]]}},{"type":"Feature","properties":{"name":"Rash Behari Avenue","cls":"primary"},"geometry":{"type":"LineString","coordinates":[[88.369072,22.521211],[88.369134,22.521218],[88.369232,22.521227],[88.36926,22.521228],[88.369405,22.521228],[88.369451,22.521226],[88.369475,22.521225]]}},{"type":"Feature","properties":{"name":"Rash Behari Avenue Connector","cls":"primary"},"geometry":{"type":"LineString","coordinates":[[88.375501,22.51984],[88.375711,22.519757],[88.375906,22.519681],[88.376085,22.519619]]}},{"type":"Feature","properties":{"name":"Rash Behari Avenue Connector","cls":"primary"},"geometry":{"type":"LineString","coordinates":[[88.376043,22.519547],[88.375874,22.519606],[88.375679,22.519682]]}},{"type":"Feature","properties":{"name":"Rash Behari Avenue Connector","cls":"primary"},"geometry":{"type":"LineString","coordinates":[[88.376388,22.519535],[88.376807,22.519448],[88.3774,22.51942],[88.377995,22.519386],[88.378443,22.519351],[88.378482,22.519346]]}},{"type":"Feature","properties":{"name":"Rash Behari Avenue Connector","cls":"primary"},"geometry":{"type":"LineString","coordinates":[[88.378482,22.519346],[88.378794,22.519321],[88.379895,22.519245],[88.380273,22.519241],[88.38035,22.519242],[88.38042,22.519251],[88.38069,22.519286],[88.381043,22.519329],[88.382814,22.51957]]}},{"type":"Feature","properties":{"name":"Rash Behari Avenue Connector","cls":"primary"},"geometry":{"type":"LineString","coordinates":[[88.38287,22.51949],[88.381032,22.519246],[88.380639,22.519197],[88.38043,22.51917],[88.380357,22.519164],[88.38029,22.519161],[88.379892,22.519164],[88.379634,22.51918],[88.37904,22.519222],[88.379002,22.519225],[88.378787,22.51924],[88.378528,22.519258],[88.378464,22.519263],[88.377988,22.519306],[88.37743,22.519339],[88.376795,22.519368],[88.376367,22.519457]]}},{"type":"Feature","properties":{"name":"Rifle Range Road","cls":"tertiary"},"geometry":{"type":"LineString","coordinates":[[88.37222,22.52928],[88.372304,22.529952],[88.372396,22.530217]]}},{"type":"Feature","properties":{"name":"Syed Amir Ali Avenue","cls":"primary"},"geometry":{"type":"LineString","coordinates":[[88.365223,22.531201],[88.365376,22.530617],[88.365464,22.530262],[88.365481,22.530195],[88.365556,22.529903],[88.365655,22.529544],[88.365776,22.529192],[88.365892,22.528906]]}}]}
