{"type":"FeatureCollection","ward":"barrackpore","source":"OpenStreetMap via Overpass (ODbL)","note":"Major classes only. OSM names 97% of primary and 100% of tertiary ways here but 17% of residential and 2% of service, so labelling the minor classes would imply the unnamed majority have no name.","count":13,"names":["Barasat Road","Barrackpore Trunk Road","Central Road","Old Calcutta Road","R N Avenue","SN Banerjee Road / Barrack Road","Shanti Bazar Lane"],"features":[{"type":"Feature","properties":{"name":"Barasat Road","cls":"primary"},"geometry":{"type":"LineString","coordinates":[[88.372798,22.767046],[88.373189,22.767068],[88.37359,22.767103],[88.373675,22.76711],[88.374082,22.767143],[88.374201,22.767155],[88.374368,22.767174],[88.374581,22.767198],[88.374805,22.767221],[88.375129,22.767251]]}},{"type":"Feature","properties":{"name":"Barasat Road","cls":"primary"},"geometry":{"type":"LineString","coordinates":[[88.375129,22.767251],[88.375315,22.76725],[88.3755,22.767242],[88.375723,22.767225],[88.376038,22.767194],[88.376463,22.767146],[88.376904,22.767083],[88.377211,22.767029],[88.377584,22.766965],[88.377933,22.766901],[88.378299,22.766832],[88.378413,22.766814],[88.378543,22.766805],[88.378687,22.766802],[88.379067,22.766815],[88.379512,22.766843],[88.379885,22.766867],[88.380225,22.766888],[88.381645,22.766977],[88.381797,22.766987],[88.383326,22.767089],[88.383451,22.767096],[88.383638,22.767105],[88.383919,22.767122],[88.38404,22.767132],[88.384402,22.767157],[88.384885,22.767187],[88.385349,22.767214],[88.385611,22.767228],[88.386089,22.767257],[88.386288,22.76727],[88.38651,22.767289],[88.386936,22.76732],[88.387439,22.767365],[88.387865,22.767383],[88.388089,22.767399]]}},{"type":"Feature","properties":{"name":"Barrackpore Trunk Road","cls":"primary"},"geometry":{"type":"LineString","coordinates":[[88.366361,22.761263],[88.366676,22.760507],[88.366849,22.760104],[88.366969,22.759842],[88.367197,22.759315],[88.367885,22.757727],[88.368146,22.757141],[88.368267,22.756862],[88.368392,22.756563],[88.368706,22.755836],[88.368721,22.755801],[88.368852,22.755502],[88.369168,22.754784],[88.369307,22.754485],[88.369411,22.754237],[88.369843,22.753201],[88.370343,22.752113],[88.370436,22.751893],[88.370583,22.751557],[88.370783,22.751059],[88.370826,22.750959],[88.370866,22.750867],[88.370902,22.750795],[88.370952,22.750718],[88.371025,22.750616],[88.3711,22.750522],[88.371198,22.750439],[88.37129,22.750378],[88.371444,22.750304],[88.371584,22.750251],[88.371876,22.75013],[88.371974,22.750076],[88.372078,22.749995],[88.372129,22.749915],[88.372197,22.749763],[88.372229,22.749649],[88.372266,22.749062],[88.372308,22.748515],[88.372346,22.747896],[88.37238,22.747132],[88.372453,22.745805],[88.372477,22.7453],[88.372498,22.744876],[88.372522,22.74446],[88.372559,22.743731],[88.372565,22.743612],[88.372649,22.742032],[88.372682,22.741572],[88.372731,22.740477],[88.372745,22.740112],[88.372782,22.739454],[88.372835,22.738647],[88.372867,22.73804],[88.372874,22.737912],[88.372886,22.73768],[88.372888,22.737631],[88.372913,22.737215],[88.372924,22.737047],[88.372933,22.736921],[88.372963,22.736367],[88.372985,22.735884],[88.373002,22.735562],[88.373019,22.73537],[88.373047,22.734883],[88.373125,22.733348],[88.373141,22.732963],[88.373164,22.73258],[88.373176,22.73234],[88.373196,22.731933],[88.373212,22.731527],[88.373239,22.731],[88.373291,22.730082],[88.373294,22.730034],[88.373299,22.729879],[88.373362,22.72871],[88.373377,22.728407],[88.373389,22.728116],[88.373474,22.726785],[88.373518,22.7261],[88.373539,22.72572],[88.373581,22.725034],[88.373596,22.724502],[88.373611,22.724097],[88.373627,22.723831],[88.373638,22.723665],[88.37365,22.723471],[88.37369,22.722846],[88.373726,22.722087],[88.373762,22.721315],[88.373787,22.720771],[88.373864,22.719287],[88.373946,22.718094],[88.373988,22.717373],[88.374022,22.716799],[88.374073,22.715791],[88.374084,22.715586],[88.374148,22.714351],[88.374247,22.712622],[88.374274,22.711633],[88.374294,22.711246],[88.374302,22.710956],[88.374314,22.7107],[88.374343,22.710238],[88.374379,22.709775],[88.374386,22.709709]]}},{"type":"Feature","properties":{"name":"Barrackpore Trunk Road","cls":"primary"},"geometry":{"type":"LineString","coordinates":[[88.368954,22.760776],[88.369304,22.760661],[88.369633,22.760559],[88.369693,22.76056],[88.369866,22.760494]]}},{"type":"Feature","properties":{"name":"Barrackpore Trunk Road","cls":"primary"},"geometry":{"type":"LineString","coordinates":[[88.370196,22.760511],[88.370211,22.76055],[88.370244,22.760577],[88.370287,22.760588],[88.370331,22.760579],[88.370364,22.760552],[88.370381,22.760513],[88.370376,22.760472],[88.370351,22.760438],[88.370312,22.760419],[88.370307,22.760419],[88.370267,22.760418],[88.370228,22.760437],[88.370202,22.76047],[88.370196,22.760511]]}},{"type":"Feature","properties":{"name":"Barrackpore Trunk Road","cls":"primary"},"geometry":{"type":"LineString","coordinates":[[88.370267,22.760418],[88.369977,22.760431],[88.369922,22.760462],[88.369866,22.760494]]}},{"type":"Feature","properties":{"name":"Barrackpore Trunk Road","cls":"primary"},"geometry":{"type":"LineString","coordinates":[[88.374319,22.709708],[88.374313,22.709769],[88.374263,22.710319],[88.374183,22.711589],[88.374169,22.711845],[88.37416,22.71221],[88.374127,22.71263],[88.374056,22.713637],[88.374013,22.714635],[88.373971,22.715605],[88.373941,22.716234],[88.373919,22.716773],[88.373893,22.717369],[88.373877,22.717643],[88.373863,22.717816],[88.373801,22.719138],[88.373793,22.719282],[88.373779,22.719477],[88.373755,22.719938],[88.373714,22.720758],[88.373688,22.721283],[88.37367,22.721559],[88.373661,22.721726],[88.373646,22.722069],[88.373609,22.722854],[88.373576,22.723556],[88.373556,22.723845],[88.37354,22.724092],[88.373535,22.724162],[88.373518,22.724486],[88.373492,22.725009],[88.373484,22.72512],[88.373457,22.725715],[88.37345,22.725817],[88.373432,22.726089],[88.373423,22.726318],[88.373404,22.726779],[88.373366,22.727268],[88.37333,22.727993],[88.373323,22.728115],[88.373307,22.728394],[88.3733,22.728565],[88.37329,22.728705],[88.373267,22.729148],[88.373251,22.729409],[88.373232,22.729875],[88.373226,22.730026],[88.373171,22.730931],[88.373166,22.730997],[88.373136,22.731521],[88.373116,22.731924],[88.373095,22.732339],[88.373081,22.732581],[88.373068,22.73296],[88.373058,22.733251],[88.373052,22.733401],[88.373031,22.733748],[88.373008,22.734131],[88.372975,22.734866],[88.37294,22.735368],[88.372931,22.735566],[88.372914,22.735883],[88.372895,22.736108],[88.372887,22.736365],[88.37288,22.736529],[88.372863,22.73693],[88.372861,22.737047],[88.372852,22.737213],[88.372826,22.737626],[88.372822,22.737698],[88.372815,22.737879],[88.372807,22.73803],[88.372783,22.738514],[88.372776,22.738652],[88.37276,22.73886],[88.372713,22.739464],[88.372709,22.739592],[88.372675,22.740086],[88.37267,22.740216],[88.372663,22.740379],[88.372657,22.740519],[88.372643,22.740839],[88.372638,22.74093],[88.372617,22.74137],[88.372598,22.741611],[88.372555,22.742033],[88.372531,22.742452],[88.372508,22.743125],[88.372494,22.743295],[88.372483,22.743666],[88.372481,22.743731],[88.372478,22.743804],[88.372472,22.743902],[88.372437,22.744351],[88.372433,22.744457],[88.372412,22.744873],[88.372392,22.745297],[88.372377,22.745707],[88.372373,22.745842],[88.37235,22.746198],[88.372325,22.746672],[88.372301,22.747243],[88.372263,22.747879],[88.372225,22.748502],[88.372167,22.749358],[88.372159,22.749492],[88.372147,22.7496],[88.372102,22.749753],[88.372049,22.749879],[88.371997,22.749955],[88.371925,22.750017],[88.371844,22.750063],[88.371757,22.750103],[88.371636,22.750143],[88.37153,22.75019],[88.371295,22.750297],[88.371243,22.750326],[88.371193,22.750357],[88.371135,22.7504],[88.371084,22.750444],[88.371005,22.750525],[88.370936,22.750604],[88.370877,22.750677],[88.370866,22.750689],[88.370857,22.750703],[88.370845,22.750726],[88.370822,22.75077],[88.370779,22.750859],[88.370718,22.751007],[88.370621,22.751225],[88.370497,22.751525],[88.370338,22.751857],[88.370246,22.752056],[88.369485,22.753816],[88.369322,22.754193],[88.369193,22.75449],[88.369087,22.754747],[88.368769,22.75548],[88.368628,22.755804],[88.368522,22.756043],[88.36851,22.75607],[88.368292,22.756579],[88.368181,22.756834],[88.368062,22.75711],[88.367813,22.757696],[88.367121,22.759288],[88.366765,22.760077],[88.366594,22.760466],[88.366513,22.760669],[88.366402,22.760941],[88.366269,22.761265],[88.366248,22.761313],[88.366224,22.761364],[88.366173,22.761472]]}},{"type":"Feature","properties":{"name":"Central Road","cls":"tertiary"},"geometry":{"type":"LineString","coordinates":[[88.373778,22.758004],[88.373856,22.758167],[88.373863,22.758186],[88.373903,22.758289],[88.373979,22.758508],[88.374037,22.758696],[88.374046,22.758729],[88.374093,22.758904],[88.374157,22.759144],[88.374182,22.759267],[88.374207,22.75939],[88.374219,22.759445],[88.374262,22.759656],[88.374275,22.759712],[88.374296,22.759764],[88.374318,22.759819],[88.374331,22.759872],[88.37434,22.759913],[88.374369,22.760017],[88.374391,22.760111],[88.374407,22.760205],[88.374423,22.760304],[88.374426,22.760339],[88.374434,22.76042],[88.374436,22.760496],[88.37445,22.760615],[88.374452,22.760638],[88.374458,22.760712],[88.374477,22.76085],[88.374492,22.760952],[88.374498,22.760971],[88.374509,22.761056],[88.374528,22.761164],[88.374536,22.761283],[88.374544,22.761397],[88.374548,22.761426],[88.374596,22.761782],[88.3746,22.761815],[88.374629,22.761961],[88.374639,22.762014],[88.374651,22.762084],[88.374675,22.762188],[88.374705,22.762327],[88.374745,22.762428],[88.374804,22.762574],[88.37486,22.762688],[88.374909,22.762809],[88.374928,22.762921],[88.374965,22.763066],[88.374997,22.76321],[88.375002,22.763235],[88.375027,22.763348],[88.375056,22.763482],[88.375085,22.763623],[88.375107,22.763729],[88.375125,22.763809],[88.375169,22.764004],[88.375182,22.764063],[88.375257,22.764454],[88.375287,22.764608],[88.375311,22.764736],[88.375386,22.76501],[88.375391,22.765052],[88.375415,22.765238],[88.375428,22.765435],[88.375439,22.765516],[88.375445,22.765737],[88.375438,22.765825],[88.375432,22.765895],[88.375421,22.765976],[88.375417,22.766077],[88.375369,22.766286],[88.375292,22.766445],[88.375266,22.766524],[88.375255,22.766599],[88.375258,22.766661],[88.375164,22.76702],[88.375129,22.767251]]}},{"type":"Feature","properties":{"name":"Old Calcutta Road","cls":"primary"},"geometry":{"type":"LineString","coordinates":[[88.370859,22.758228],[88.37088,22.75822],[88.370893,22.75822],[88.371144,22.758253],[88.371381,22.758274],[88.371426,22.758282],[88.371444,22.758284],[88.371477,22.75829],[88.371499,22.758293],[88.371525,22.758297],[88.371544,22.7583],[88.371594,22.758308],[88.371611,22.758311],[88.371657,22.758318],[88.371678,22.758321],[88.371727,22.758329],[88.371809,22.758342],[88.372098,22.758388],[88.372308,22.758426],[88.372342,22.758432],[88.372419,22.758441],[88.372452,22.758446],[88.372532,22.758456],[88.372729,22.758471],[88.373019,22.758476],[88.373034,22.758473],[88.373183,22.758446],[88.373273,22.758398],[88.373356,22.758359],[88.373778,22.758004]]}},{"type":"Feature","properties":{"name":"R N Avenue","cls":"primary"},"geometry":{"type":"LineString","coordinates":[[88.373778,22.758004],[88.373913,22.757836],[88.37436,22.757383],[88.37459,22.757153],[88.374677,22.757064],[88.37486,22.756879],[88.375205,22.756555],[88.375226,22.756511],[88.375426,22.756309],[88.375495,22.75623],[88.375821,22.755911],[88.376091,22.755644],[88.376457,22.75527],[88.376497,22.755219],[88.376849,22.754786],[88.377015,22.754565],[88.37729,22.754231],[88.377422,22.754066],[88.377459,22.754019],[88.377719,22.753699],[88.377976,22.753396],[88.378009,22.753356],[88.378216,22.753084],[88.378367,22.752896],[88.378476,22.752762],[88.378485,22.752751],[88.378602,22.752618],[88.378628,22.752576],[88.378691,22.752501],[88.378833,22.752327],[88.378928,22.752225],[88.37898,22.752187]]}},{"type":"Feature","properties":{"name":"SN Banerjee Road / Barrack Road","cls":"tertiary"},"geometry":{"type":"LineString","coordinates":[[88.361342,22.763318],[88.362277,22.763016],[88.36288,22.762822],[88.363385,22.76265],[88.363471,22.762623],[88.363655,22.762565],[88.363873,22.762494],[88.363909,22.762434]]}},{"type":"Feature","properties":{"name":"SN Banerjee Road / Barrack Road","cls":"tertiary"},"geometry":{"type":"LineString","coordinates":[[88.366014,22.761776],[88.365064,22.762061],[88.363942,22.762424],[88.363909,22.762434]]}},{"type":"Feature","properties":{"name":"Shanti Bazar Lane","cls":"primary"},"geometry":{"type":"LineString","coordinates":[[88.366014,22.761776],[88.365731,22.762359],[88.365487,22.762821],[88.365435,22.762922],[88.365395,22.762993],[88.365229,22.763295],[88.365165,22.763406],[88.364915,22.763852],[88.364858,22.763972],[88.364816,22.764054],[88.36478,22.764109],[88.364728,22.764163],[88.364656,22.764218],[88.364566,22.764274],[88.364493,22.764313],[88.364416,22.764346],[88.3643,22.764381],[88.364122,22.764429],[88.363695,22.764533],[88.363319,22.764626],[88.363314,22.76463],[88.36331,22.764634],[88.363311,22.764639],[88.363312,22.764644],[88.363447,22.765063],[88.363506,22.765277],[88.363525,22.765376],[88.363545,22.765493],[88.363571,22.765676],[88.363587,22.765826],[88.363606,22.766095],[88.363608,22.766105],[88.363621,22.766108],[88.363996,22.766098],[88.364154,22.766107],[88.364278,22.766124],[88.364394,22.766161],[88.364514,22.76621],[88.364649,22.766288],[88.364726,22.766336],[88.364793,22.766369],[88.364858,22.76639],[88.364958,22.766409],[88.365077,22.766418],[88.365192,22.766422],[88.365393,22.766421],[88.365569,22.76642],[88.365687,22.766414],[88.365955,22.766404],[88.366101,22.766405],[88.366183,22.766411],[88.366576,22.76644],[88.366668,22.766446]]}}]}
