{"type":"FeatureCollection","ward":"baruipur","source":"OpenStreetMap via Overpass (ODbL)","note":"Major classes only. OSM names 97% of primary and 100% of tertiary ways here but 17% of residential and 2% of service, so labelling the minor classes would imply the unnamed majority have no name.","count":5,"names":["Baruipur-Amtala Road","Garia Main Road","Kulpi Road"],"features":[{"type":"Feature","properties":{"name":"Baruipur-Amtala Road","cls":"secondary"},"geometry":{"type":"LineString","coordinates":[[88.422076,22.370788],[88.422677,22.370909],[88.42304,22.371018],[88.423161,22.371055],[88.42366,22.371197],[88.423799,22.371241],[88.423877,22.371267],[88.424314,22.371407],[88.424395,22.371433],[88.424763,22.37153],[88.425071,22.371629],[88.425248,22.371681],[88.425339,22.371712]]}},{"type":"Feature","properties":{"name":"Garia Main Road","cls":"primary"},"geometry":{"type":"LineString","coordinates":[[88.425571,22.371928],[88.425514,22.372087],[88.425464,22.372234],[88.425412,22.372377],[88.425349,22.37255],[88.425271,22.372736],[88.425209,22.372884],[88.425141,22.373059],[88.425114,22.373148],[88.425095,22.373212],[88.425056,22.373369],[88.425024,22.373508],[88.424987,22.373634],[88.42493,22.373784],[88.424847,22.373983],[88.424792,22.374119],[88.424736,22.374257],[88.424678,22.374397],[88.42461,22.374557],[88.424542,22.374731],[88.424466,22.374903],[88.424399,22.375059],[88.424364,22.375138],[88.424323,22.375228],[88.424302,22.375271],[88.424249,22.375382],[88.424167,22.375547],[88.424036,22.37579],[88.423966,22.375926],[88.423931,22.375992],[88.423855,22.376151],[88.423742,22.376374],[88.423689,22.376486],[88.423603,22.376669],[88.423542,22.376806],[88.423494,22.376915],[88.423391,22.377182],[88.4233,22.377424],[88.423234,22.377595],[88.423191,22.377708],[88.423102,22.377964],[88.423035,22.378183],[88.422939,22.378502],[88.422877,22.378688],[88.422809,22.378885],[88.422702,22.379183],[88.42266,22.379296],[88.422633,22.379369],[88.422563,22.379568],[88.422466,22.379867],[88.422389,22.380092],[88.422346,22.380232],[88.422309,22.380379],[88.422243,22.380623],[88.422221,22.380703],[88.422172,22.380869],[88.422168,22.380884],[88.422115,22.381068],[88.422103,22.38112],[88.422074,22.38125],[88.421922,22.38189],[88.421878,22.382077],[88.421827,22.382287],[88.421772,22.382479],[88.421725,22.382608],[88.421677,22.382696],[88.42161,22.382769],[88.421508,22.382842],[88.421382,22.38292],[88.421151,22.383068],[88.421044,22.383138],[88.420976,22.38319],[88.420902,22.383269],[88.420843,22.38336],[88.420789,22.38348],[88.420741,22.383638],[88.42065,22.383988],[88.420601,22.38419],[88.420561,22.384381],[88.42051,22.384582],[88.420436,22.384867],[88.420396,22.385041],[88.420345,22.385309],[88.420316,22.385464],[88.420283,22.385653],[88.420257,22.385818],[88.420215,22.386077],[88.420172,22.386334],[88.420108,22.386707],[88.420072,22.386907],[88.420037,22.3871],[88.420009,22.387254],[88.419989,22.387397],[88.419974,22.387559],[88.419968,22.38765],[88.419959,22.387812],[88.419959,22.388017],[88.419955,22.388199],[88.419945,22.388385],[88.419933,22.388553],[88.419931,22.388732],[88.419935,22.388908],[88.419935,22.389002],[88.419936,22.389071],[88.419923,22.38921],[88.4199,22.38935],[88.419872,22.389474],[88.419827,22.389616],[88.419732,22.389975],[88.419681,22.390188],[88.419624,22.390409],[88.419546,22.390672],[88.41949,22.390857],[88.41946,22.390961],[88.419429,22.391107],[88.41939,22.391303],[88.419361,22.391479],[88.419333,22.391672],[88.419321,22.391834],[88.419313,22.392028],[88.419291,22.392277],[88.41927,22.392488],[88.419243,22.392684],[88.419226,22.392805],[88.419212,22.392945],[88.419203,22.393093],[88.419197,22.393243],[88.419195,22.393423],[88.419197,22.39362],[88.419204,22.393805],[88.419215,22.394041],[88.419217,22.394234],[88.419212,22.394438],[88.419201,22.394666],[88.419197,22.394868],[88.419197,22.395121],[88.419204,22.395439],[88.419217,22.395805],[88.419231,22.396099],[88.419243,22.396315],[88.419252,22.396493],[88.419279,22.39674],[88.419299,22.396896],[88.419318,22.397029],[88.419353,22.397201],[88.419384,22.397344],[88.419433,22.397518],[88.419494,22.397696],[88.419558,22.397863],[88.419642,22.398025],[88.419734,22.398198],[88.419769,22.398269],[88.419814,22.398358],[88.419892,22.398523],[88.41995,22.398651],[88.419963,22.398688],[88.419999,22.398782],[88.420041,22.398944],[88.420066,22.399059],[88.420092,22.399193],[88.420152,22.399552],[88.42019,22.399737],[88.420216,22.399857],[88.420251,22.399965],[88.420292,22.400063],[88.420332,22.400136],[88.420383,22.400201],[88.420489,22.400288],[88.420612,22.400381],[88.420678,22.40043],[88.420731,22.400489],[88.420777,22.400565],[88.420802,22.400647],[88.420825,22.400777],[88.420875,22.401014],[88.421032,22.401911],[88.421064,22.402082],[88.421107,22.402213],[88.421163,22.402342],[88.421246,22.402491],[88.42134,22.402622],[88.421431,22.402741],[88.421507,22.402865],[88.421567,22.402983],[88.421596,22.403075],[88.421623,22.403178],[88.421645,22.403276],[88.421653,22.4034],[88.421651,22.40352],[88.421638,22.403653],[88.421605,22.403774],[88.421566,22.403894],[88.421527,22.404041],[88.421497,22.404169],[88.421468,22.404352],[88.421448,22.404505],[88.421436,22.404669],[88.421437,22.404837],[88.421434,22.405034],[88.421438,22.405073],[88.421446,22.405154],[88.421458,22.40525],[88.421496,22.405424],[88.421531,22.405563],[88.421575,22.40572],[88.421621,22.405861],[88.421649,22.405971],[88.42167,22.406085],[88.42167,22.406181],[88.421649,22.406286],[88.42161,22.406387],[88.421555,22.406519],[88.421493,22.406671],[88.421437,22.406791],[88.421414,22.406843],[88.421379,22.406921],[88.421311,22.407091],[88.421287,22.407155],[88.421252,22.407252],[88.421207,22.407396],[88.421138,22.407619],[88.42106,22.407883],[88.420996,22.408076],[88.420935,22.408243],[88.420894,22.408355],[88.420833,22.408498],[88.420733,22.408699],[88.420605,22.408918],[88.420396,22.409276],[88.420316,22.409413],[88.420202,22.409596],[88.420136,22.409699],[88.420093,22.409789],[88.420053,22.409897],[88.420011,22.410019],[88.419933,22.410266],[88.419878,22.410436],[88.419827,22.410565],[88.419764,22.410705],[88.419511,22.411196],[88.419392,22.411379],[88.419318,22.411462],[88.419227,22.411539],[88.419121,22.411625],[88.418981,22.41173],[88.418883,22.411822],[88.418808,22.411896],[88.418721,22.412003],[88.418615,22.412134],[88.418515,22.412256],[88.418441,22.412325],[88.418371,22.412375],[88.418257,22.412435],[88.418197,22.412461],[88.418026,22.412565],[88.417922,22.412641],[88.417841,22.412716],[88.417722,22.412821],[88.417566,22.412982],[88.41743,22.413151],[88.417253,22.413379],[88.417068,22.413658],[88.416807,22.414068],[88.416547,22.4145],[88.4164,22.414741],[88.416298,22.414941],[88.416198,22.415137],[88.416094,22.415358],[88.415954,22.415623],[88.415665,22.416206],[88.415572,22.416405],[88.415516,22.416515],[88.415497,22.416597]]}},{"type":"Feature","properties":{"name":"Kulpi Road","cls":"primary"},"geometry":{"type":"LineString","coordinates":[[88.425571,22.371928],[88.425622,22.371802],[88.425687,22.371628],[88.425742,22.371507],[88.425802,22.371377],[88.425854,22.371257],[88.425891,22.371173],[88.426015,22.370875],[88.426139,22.370605],[88.426277,22.37032],[88.426459,22.369944],[88.426503,22.369868],[88.426638,22.369632],[88.426848,22.369274],[88.427096,22.368836],[88.42732,22.368445],[88.427406,22.368283],[88.427484,22.368155],[88.427571,22.368026],[88.427614,22.367976],[88.427678,22.3679],[88.427745,22.367809]]}},{"type":"Feature","properties":{"name":"Kulpi Road","cls":"primary"},"geometry":{"type":"LineString","coordinates":[[88.427745,22.367809],[88.427928,22.367591],[88.428012,22.367467],[88.428071,22.367386],[88.428177,22.367233],[88.42829,22.36708],[88.428364,22.366999],[88.42843,22.366923],[88.428498,22.36684],[88.428565,22.366732],[88.428663,22.366548],[88.428824,22.366259],[88.429019,22.365925],[88.429139,22.365746],[88.429242,22.365603],[88.429312,22.365501],[88.42939,22.365385],[88.429481,22.365223],[88.429569,22.36506],[88.429616,22.364973],[88.429687,22.364832],[88.429769,22.364667],[88.429899,22.364415],[88.430039,22.364158],[88.43012,22.36402],[88.430178,22.36392],[88.430277,22.363734],[88.430393,22.3635],[88.430428,22.363432],[88.430492,22.363292],[88.430623,22.363015],[88.430704,22.362882],[88.43074,22.36283],[88.430776,22.362779],[88.430812,22.362735],[88.430875,22.362657],[88.431293,22.362052],[88.431525,22.361737],[88.431695,22.361495],[88.431896,22.361215],[88.432058,22.360973],[88.4321,22.36091],[88.432175,22.360793],[88.43225,22.360679],[88.432317,22.360574],[88.432395,22.360437],[88.432472,22.360275],[88.43251,22.360186],[88.432541,22.360111],[88.432609,22.359959]]}},{"type":"Feature","properties":{"name":"Kulpi Road","cls":"primary"},"geometry":{"type":"LineString","coordinates":[[88.432609,22.359959],[88.432732,22.359688],[88.43284,22.359479],[88.432971,22.359236],[88.433059,22.359073],[88.43318,22.358861],[88.433276,22.358705],[88.433371,22.358531],[88.433442,22.358388],[88.433528,22.358209],[88.43366,22.357895],[88.433928,22.357273],[88.434083,22.356912],[88.434137,22.356828],[88.434188,22.356767],[88.43426,22.356713],[88.434353,22.356677],[88.434506,22.35663],[88.434635,22.356597],[88.434725,22.356568],[88.434797,22.356528],[88.434853,22.356486],[88.434915,22.356423],[88.43499,22.356317],[88.435061,22.356167],[88.435144,22.355991],[88.435279,22.355698],[88.435392,22.355453],[88.435416,22.355401],[88.435536,22.355134],[88.435612,22.354968],[88.43571,22.354711],[88.435775,22.354535],[88.435832,22.354369],[88.435874,22.354214],[88.435894,22.354083],[88.435918,22.353911],[88.435947,22.353578],[88.435969,22.353357],[88.435992,22.353213],[88.436015,22.353082],[88.436046,22.352961],[88.436076,22.352843],[88.436121,22.352714],[88.436167,22.352601],[88.436244,22.352424],[88.436287,22.352304],[88.43631,22.352206],[88.436316,22.352109],[88.436312,22.352049],[88.436296,22.351966],[88.436259,22.351822],[88.43625,22.351789],[88.436225,22.351695],[88.436209,22.351594],[88.436206,22.351465],[88.436217,22.35136],[88.436245,22.351269],[88.436296,22.351155],[88.436375,22.351009],[88.436463,22.350857],[88.436538,22.350723],[88.436638,22.350563],[88.436709,22.350453],[88.436774,22.350379],[88.436861,22.350297],[88.436965,22.350209],[88.437035,22.350134],[88.437131,22.350031],[88.437294,22.349865],[88.437375,22.349784],[88.437449,22.34971],[88.437544,22.349589],[88.437604,22.349492],[88.437657,22.349392],[88.437702,22.349292],[88.437749,22.349175],[88.437812,22.348999],[88.437912,22.348699],[88.437949,22.348602],[88.437979,22.348542],[88.438029,22.348476],[88.438095,22.348412],[88.438166,22.348362],[88.438242,22.348326],[88.438308,22.348305],[88.438392,22.34829],[88.438749,22.348271],[88.439114,22.348251]]}}]}
